#aV2020  2  9  0  0  0.00000000     288 DD+AD WGS84 FIT  NGA
## 2092      0.00000000   300.00000000 58888 0.0000000000000
+   32     1  2  3  4  5  6  7  8  9 10 11 12 13 14 15 16 17
+         18 19 20 21 22 23 24 25 26 27 28 29 30 31 32  0  0
+          0  0  0  0  0  0  0  0  0  0  0  0  0  0  0  0  0
+          0  0  0  0  0  0  0  0  0  0  0  0  0  0  0  0  0
+          0  0  0  0  0  0  0  0  0  0  0  0  0  0  0  0  0
++         2  2  2  2  2  2  2  2  2  2  2  2  2  2  2  2  2
++         2  2  2  2  2  2  2  2  2  2  2  2  2  2  2  0  0
++         0  0  0  0  0  0  0  0  0  0  0  0  0  0  0  0  0
++         0  0  0  0  0  0  0  0  0  0  0  0  0  0  0  0  0
++         0  0  0  0  0  0  0  0  0  0  0  0  0  0  0  0  0
%c cc cc ccc ccc cccc cccc cccc cccc ccccc ccccc ccccc ccccc
%c cc cc ccc ccc cccc cccc cccc cccc ccccc ccccc ccccc ccccc
%f  0.0000000  0.000000000  0.00000000000  0.000000000000000
%f  0.0000000  0.000000000  0.00000000000  0.000000000000000
%i    0    0    0    0      0      0      0      0         0
%i    0    0    0    0      0      0      0      0         0
/*      NGA, ST. LOUIS,MO.                                  
/*   EPHEMERIS COMPUTED FROM 2 DAYS OF DATA                 
/*   EPOCHA v5 SMOOTHER                                     
/*   G1762 IERS2010 SATAF SATAPC                            
*  2020  2  9 10 40  0.00000000
P  1 -14357.826750  22128.776855   -319.128136   -289.345820                    
V  1  -2204.048198  -1264.327528  32360.303889     -0.121542                    
P  2  17985.368754  -6647.717742 -17701.257680   -401.557878                    
V  2  -9991.177983  21703.260132 -17757.020136     -0.069732                    
P  3 -11474.334456  13237.762347 -19992.126777    -90.532380                    
V  3 -25177.600872  -2487.015102  12931.582012     -0.086136                    
P  4  -4180.583865  19667.265375 -17336.885984    -46.361524                    
V  4 -10931.352825 -19214.005453 -19175.027089     -0.053856                    
P  5  26169.554291  -2470.896651   4345.475329     -7.325769                    
V  5   5589.825263   3019.202964 -30795.350587     -0.005751                    
P  6  13422.207865   6456.140430 -21938.347964   -204.051644                    
V  6 -15078.029237  23514.649463  -2262.352457     -0.095131                    
P  7  -1316.007715  21596.843661  15362.118500   -210.611300                    
V  7 -12666.803699  14642.136439 -22558.133708     -0.084120                    
P  8 -11509.978332  10074.840686  21720.328147    -23.137419                    
V  8 -13232.489480 -24117.352057   4418.058876     -0.013037                    
P  9   5046.022375  24243.237244  -9642.511318   -151.639601                    
V  9  -8124.017994  -9485.955137 -28281.589535     -0.085534                    
P 10 -18417.009151 -11637.643988  15428.827592   -239.061669                    
V 10  19413.206349   -740.271121  22501.806472     -0.131382                    
P 11 -12042.744656  19985.472443  12457.177410   -366.178001                    
V 11  -1475.368891 -16896.453515  24409.365880      0.108015                    
P 12  15236.946722 -10934.761252 -18965.364365    153.188007                    
V 12  23294.341026   4064.020505  16737.336824     -0.041551                    
P 13  15344.957178  -1135.906027  21533.586582    -14.094416                    
V 13   8967.955007  26110.248924  -4905.987075      0.027285                    
P 14 -17006.549280 -13369.493462 -15201.107475    -33.568751                    
V 14  -5702.979468 -19091.807403  22499.951926      0.024055                    
P 15  10784.550336 -11961.712020  20770.240646   -252.787272                    
V 15  15466.932864  22466.449270   5217.271814      0.026395                    
P 16 -26387.038264   -755.190241   4448.598948   -122.579823                    
V 16  -5511.512729  -2610.629861 -31228.252233     -0.041152                    
P 17  14238.354611  21288.517194  -6710.518709    213.075244                    
V 17   1805.137632   9100.868351  30701.508774      0.064558                    
P 18 -16936.508288  18747.806513   7535.497231      1.672908                    
V 18   2593.574252 -10369.228665  29734.534589      0.019622                    
P 19  16316.085819  15427.476999 -14473.631903   -201.071835                    
V 19   4992.336476  17191.898502  24453.472395      0.051558                    
P 20  -7942.299454 -14694.219330  20598.877195    527.857899                    
V 20  26280.590491  -2859.662306   7852.473540      0.000228                    
P 21  -1778.740404 -21244.658101  16785.603124    -43.590038                    
V 21  11128.969225 -16424.438080 -20358.745704      0.054273                    
P 22 -19098.344523  11235.880186 -14338.669082   -784.218353                    
V 22 -18790.849390  -2400.740059  22912.520701     -0.007646                    
P 23  -2589.666668  20279.012820 -16393.258468   -137.527612                    
V 23 -12458.189548 -17928.192824 -20159.889337      0.025732                    
P 24  14355.864673 -21988.153042   2120.821397     -8.791000                    
V 24   1918.567340   4504.018051  31286.875646     -0.005366                    
P 25   1449.404225 -15116.915355 -22013.091622    -13.750080                    
V 25  27338.565548   1698.405036    907.667077      0.012733                    
P 26 -25811.257511  -4315.776800  -5215.666407    144.755599                    
V 26   6619.341054  -2784.875907 -30408.801437      0.077973                    
P 27 -16622.346309  -2117.119301  20568.233909   -205.976213                    
V 27 -11349.890119 -23683.459716 -11223.371615     -0.110880                    
P 28  18179.570205  12837.270942  14980.070044    740.321313                    
V 28 -18048.652934  -1056.767240  23890.389684     -0.023221                    
P 29  -2754.351726 -24235.953732 -10521.125111    -28.664838                    
V 29   6849.957564  11520.072818 -28433.186884     -0.095575                    
P 30   8140.657364  14642.094233  20599.643212   -149.005401                    
V 30 -15965.330617  20823.129060  -8702.319805     -0.089917                    
P 31 -15521.185808  -3892.909101 -21300.380724    -22.057308                    
V 31  14966.673795 -22354.745792  -6377.246003     -0.024741                    
P 32 -16145.341436 -19816.894359  -7411.780578    207.720172                    
V 32  -1982.959076  -9636.019075  29680.634301      0.099947                    
EOF
